[{"OBJECT_NAME":"TIANMU-1 10","OBJECT_ID":"2023-101D","EPOCH":"2026-03-09T23:06:46.939392","MEAN_MOTION":15.2921896,"ECCENTRICITY":0.00069292,"INCLINATION":97.2749,"RA_OF_ASC_NODE":122.1027,"ARG_OF_PERICENTER":133.6162,"MEAN_ANOMALY":226.5654,"EPHEMERIS_TYPE":0,"CLASSIFICATION_TYPE":"U","NORAD_CAT_ID":57402,"ELEMENT_SET_NO":999,"REV_AT_EPOCH":14647,"BSTAR":0.00032238884,"MEAN_MOTION_DOT":9.075e-5,"MEAN_MOTION_DDOT":0},{"OBJECT_NAME":"STARLINK-32275","OBJECT_ID":"2024-138F","EPOCH":"2026-03-09T22:13:14.364480","MEAN_MOTION":15.3018593,"ECCENTRICITY":0.00012512,"INCLINATION":53.1615,"RA_OF_ASC_NODE":308.5162,"ARG_OF_PERICENTER":85.8575,"MEAN_ANOMALY":274.2569,"EPHEMERIS_TYPE":0,"CLASSIFICATION_TYPE":"U","NORAD_CAT_ID":60360,"ELEMENT_SET_NO":999,"REV_AT_EPOCH":9066,"BSTAR":2.5723003e-5,"MEAN_MOTION_DOT":4.02e-6,"MEAN_MOTION_DDOT":0}]
